[
    {
        "Altitude(m)": 624790.8321349743,
        "Argument of Periapsis(deg)": 0.0,
        "Eccentricity": 0.0,
        "Inclination(deg)": 60.0,
        "Latitude(deg)": -59.147227983894936,
        "Longitude(deg)": -118.96548308478282,
        "Mean Anomaly(deg)": 278.1818,
        "RAAN(deg)": 55.00000000000001,
        "Satellite Name": "Test1 259",
        "Satellite Number": 259,
        "Semi-Major Axis(m)": 6980739.136638005,
        "Time(s)": 0
    },
    {
        "Altitude(m)": 624737.4876476508,
        "Argument of Periapsis(deg)": 0.00010418945913296404,
        "Eccentricity": 0.0,
        "Inclination(deg)": 60.0,
        "Latitude(deg)": -58.994684152282346,
        "Longitude(deg)": -117.84597685426331,
        "Mean Anomaly(deg)": 278.8019061454619,
        "RAAN(deg)": 54.999579950860266,
        "Satellite Name": "Test1 259",
        "Satellite Number": 259,
        "Semi-Major Axis(m)": 6980739.136638005,
        "Time(s)": 10
    },
    {
        "Altitude(m)": 624680.3595591246,
        "Argument of Periapsis(deg)": 0.0002083789182659281,
        "Eccentricity": 0.0,
        "Inclination(deg)": 60.0,
        "Latitude(deg)": -58.83182867279574,
        "Longitude(deg)": -116.73702302066995,
        "Mean Anomaly(deg)": 279.42201229092365,
        "RAAN(deg)": 54.999159901720525,
        "Satellite Name": "Test1 259",
        "Satellite Number": 259,
        "Semi-Major Axis(m)": 6980739.136638005,
        "Time(s)": 20
    },
    {
        "Altitude(m)": 624619.470334582,
        "Argument of Periapsis(deg)": 0.00031256837739889213,
        "Eccentricity": 0.0,
        "Inclination(deg)": 60.0,
        "Latitude(deg)": -58.65882218248756,
        "Longitude(deg)": -115.6391296680101,
        "Mean Anomaly(deg)": 280.0421184363855,
        "RAAN(deg)": 54.99873985258077,
        "Satellite Name": "Test1 259",
        "Satellite Number": 259,
        "Semi-Major Axis(m)": 6980739.136638005,
        "Time(s)": 30
    },
    {
        "Altitude(m)": 624554.84391629,
        "Argument of Periapsis(deg)": 0.0004167578365318562,
        "Eccentricity": 0.0,
        "Inclination(deg)": 60.0,
        "Latitude(deg)": -58.475831703040704,
        "Longitude(deg)": -114.55276477668956,
        "Mean Anomaly(deg)": 280.6622245818473,
        "RAAN(deg)": 54.99831980344103,
        "Satellite Name": "Test1 259",
        "Satellite Number": 259,
        "Semi-Major Axis(m)": 6980739.136638005,
        "Time(s)": 40
    },
    {
        "Altitude(m)": 624486.5057134953,
        "Argument of Periapsis(deg)": 0.0005209472956648203,
        "Eccentricity": 0.0,
        "Inclination(deg)": 60.0,
        "Latitude(deg)": -58.28302993817715,
        "Longitude(deg)": -113.47835698620365,
        "Mean Anomaly(deg)": 281.28233072730916,
        "RAAN(deg)": 54.99789975430129,
        "Satellite Name": "Test1 259",
        "Satellite Number": 259,
        "Semi-Major Axis(m)": 6980739.136638005,
        "Time(s)": 50
    },
    {
        "Altitude(m)": 624414.4825917053,
        "Argument of Periapsis(deg)": 0.0006251367547977843,
        "Eccentricity": 0.0,
        "Inclination(deg)": 60.0,
        "Latitude(deg)": -58.08059457702952,
        "Longitude(deg)": -112.41629512942383,
        "Mean Anomaly(deg)": 281.902436872771,
        "RAAN(deg)": 54.99747970516154,
        "Satellite Name": "Test1 259",
        "Satellite Number": 259,
        "Semi-Major Axis(m)": 6980739.136638005,
        "Time(s)": 60
    },
    {
        "Altitude(m)": 624338.8028613642,
        "Argument of Periapsis(deg)": 0.0007293262139307483,
        "Eccentricity": 0.0,
        "Inclination(deg)": 60.0,
        "Latitude(deg)": -57.868707608742106,
        "Longitude(deg)": -111.36692803182599,
        "Mean Anomaly(deg)": 282.5225430182328,
        "RAAN(deg)": 54.9970596560218,
        "Satellite Name": "Test1 259",
        "Satellite Number": 259,
        "Semi-Major Axis(m)": 6980739.136638005,
        "Time(s)": 70
    },
    {
        "Altitude(m)": 624259.4962658812,
        "Argument of Periapsis(deg)": 0.0008335156730637124,
        "Eccentricity": 0.0,
        "Inclination(deg)": 60.0,
        "Latitude(deg)": -57.64755465304911,
        "Longitude(deg)": -110.33056606688122,
        "Mean Anomaly(deg)": 283.1426491636946,
        "RAAN(deg)": 54.996639606882056,
        "Satellite Name": "Test1 259",
        "Satellite Number": 259,
        "Semi-Major Axis(m)": 6980739.136638005,
        "Time(s)": 80
    },
    {
        "Altitude(m)": 624176.5939690884,
        "Argument of Periapsis(deg)": 0.0009377051321966765,
        "Eccentricity": 0.0,
        "Inclination(deg)": 60.0,
        "Latitude(deg)": -57.417324311027144,
        "Longitude(deg)": -109.30748141865533,
        "Mean Anomaly(deg)": 283.76275530915643,
        "RAAN(deg)": 54.996219557742315,
        "Satellite Name": "Test1 259",
        "Satellite Number": 259,
        "Semi-Major Axis(m)": 6980739.136638005,
        "Time(s)": 90
    },
    {
        "Altitude(m)": 624090.1285420578,
        "Argument of Periapsis(deg)": 0.0010418945913296407,
        "Eccentricity": 0.0,
        "Inclination(deg)": 60.0,
        "Latitude(deg)": -57.17820753965159,
        "Longitude(deg)": -108.29790854033145,
        "Mean Anomaly(deg)": 284.3828614546183,
        "RAAN(deg)": 54.99579950860257,
        "Satellite Name": "Test1 259",
        "Satellite Number": 259,
        "Semi-Major Axis(m)": 6980739.136638005,
        "Time(s)": 100
    },
    {
        "Altitude(m)": 624000.1339493494,
        "Argument of Periapsis(deg)": 0.0011460840504626045,
        "Eccentricity": 0.0,
        "Inclination(deg)": 60.0,
        "Latitude(deg)": -56.93039705321654,
        "Longitude(deg)": -107.30204629692206,
        "Mean Anomaly(deg)": 285.0029676000801,
        "RAAN(deg)": 54.99537945946283,
        "Satellite Name": "Test1 259",
        "Satellite Number": 259,
        "Semi-Major Axis(m)": 6980739.136638005,
        "Time(s)": 110
    },
    {
        "Altitude(m)": 623906.6455346314,
        "Argument of Periapsis(deg)": 0.0012502735095955685,
        "Eccentricity": 0.0,
        "Inclination(deg)": 60.0,
        "Latitude(deg)": -56.674086754122534,
        "Longitude(deg)": -106.32005874183538,
        "Mean Anomaly(deg)": 285.623073745542,
        "RAAN(deg)": 54.99495941032309,
        "Satellite Name": "Test1 259",
        "Satellite Number": 259,
        "Semi-Major Axis(m)": 6980739.136638005,
        "Time(s)": 120
    },
    {
        "Altitude(m)": 623809.7000057352,
        "Argument of Periapsis(deg)": 0.0013544629687285324,
        "Eccentricity": 0.0,
        "Inclination(deg)": 60.0,
        "Latitude(deg)": -56.40947119499314,
        "Longitude(deg)": -105.35207601605407,
        "Mean Anomaly(deg)": 286.24317989100376,
        "RAAN(deg)": 54.99453936118335,
        "Satellite Name": "Test1 259",
        "Satellite Number": 259,
        "Semi-Major Axis(m)": 6980739.136638005,
        "Time(s)": 130
    },
    {
        "Altitude(m)": 623709.3354191174,
        "Argument of Periapsis(deg)": 0.0014586524278614966,
        "Eccentricity": 0.0,
        "Inclination(deg)": 60.0,
        "Latitude(deg)": -56.13674507356731,
        "Longitude(deg)": -104.3981968594846,
        "Mean Anomaly(deg)": 286.86328603646564,
        "RAAN(deg)": 54.99411931204361,
        "Satellite Name": "Test1 259",
        "Satellite Number": 259,
        "Semi-Major Axis(m)": 6980739.136638005,
        "Time(s)": 140
    },
    {
        "Altitude(m)": 623605.5911637256,
        "Argument of Periapsis(deg)": 0.0015628418869944607,
        "Eccentricity": 0.0,
        "Inclination(deg)": 60.0,
        "Latitude(deg)": -55.85610276133967,
        "Longitude(deg)": -103.45848968652187,
        "Mean Anomaly(deg)": 287.48339218192746,
        "RAAN(deg)": 54.99369926290386,
        "Satellite Name": "Test1 259",
        "Satellite Number": 259,
        "Semi-Major Axis(m)": 6980739.136638005,
        "Time(s)": 150
    },
    {
        "Altitude(m)": 623498.5079443213,
        "Argument of Periapsis(deg)": 0.0016670313461274247,
        "Eccentricity": 0.0,
        "Inclination(deg)": 60.0,
        "Latitude(deg)": -55.56773786647588,
        "Longitude(deg)": -102.53299371784632,
        "Mean Anomaly(deg)": 288.1034983273893,
        "RAAN(deg)": 54.99327921376412,
        "Satellite Name": "Test1 259",
        "Satellite Number": 259,
        "Semi-Major Axis(m)": 6980739.136638005,
        "Time(s)": 160
    },
    {
        "Altitude(m)": 623388.1277642158,
        "Argument of Periapsis(deg)": 0.0017712208052603888,
        "Eccentricity": 0.0,
        "Inclination(deg)": 60.0,
        "Latitude(deg)": -55.27184283113194,
        "Longitude(deg)": -101.62172166199397,
        "Mean Anomaly(deg)": 288.7236044728511,
        "RAAN(deg)": 54.99285916462438,
        "Satellite Name": "Test1 259",
        "Satellite Number": 259,
        "Semi-Major Axis(m)": 6980739.136638005,
        "Time(s)": 170
    },
    {
        "Altitude(m)": 623274.4939074373,
        "Argument of Periapsis(deg)": 0.001875410264393353,
        "Eccentricity": 0.0,
        "Inclination(deg)": 60.0,
        "Latitude(deg)": -54.968608562953165,
        "Longitude(deg)": -100.7246609032513,
        "Mean Anomaly(deg)": 289.3437106183129,
        "RAAN(deg)": 54.992439115484636,
        "Satellite Name": "Test1 259",
        "Satellite Number": 259,
        "Semi-Major Axis(m)": 6980739.136638005,
        "Time(s)": 180
    },
    {
        "Altitude(m)": 623157.650920369,
        "Argument of Periapsis(deg)": 0.0019795997235263173,
        "Eccentricity": 0.0,
        "Inclination(deg)": 60.0,
        "Latitude(deg)": -54.658224100215875,
        "Longitude(deg)": -99.84177469278158,
        "Mean Anomaly(deg)": 289.96381676377473,
        "RAAN(deg)": 54.992019066344895,
        "Satellite Name": "Test1 259",
        "Satellite Number": 259,
        "Semi-Major Axis(m)": 6980739.136638005,
        "Time(s)": 190
    }
]